GSAT0101 (GALILEO-PFM)  
1 37846U 11060A   26093.93877219 -.00000095  00000+0  00000+0 0  9995
2 37846  57.0172 343.7769 0004100  17.7484 342.3127  1.70475877 89855
GSAT0102 (GALILEO-FM2)  
1 37847U 11060B   26094.16007975 -.00000095  00000+0  00000+0 0  9996
2 37847  57.0179 343.7712 0004811   9.1881 172.2383  1.70475892 89868
GSAT0103 (GALILEO-FM3)  
1 38857U 12055A   26094.56573666  .00000030  00000+0  00000+0 0  9990
2 38857  55.7599 103.5640 0005910 291.5496  68.4144  1.70473519 83750
GSAT0201 (GALILEO 5)    
1 40128U 14050A   26094.57587155 -.00000043  00000+0  00000+0 0  9995
2 40128  48.9567 276.4486 1662760 176.5217 184.7885  1.85520165 76951
GSAT0202 (GALILEO 6)    
1 40129U 14050B   26091.59776485 -.00000055  00000+0  00000+0 0  9994
2 40129  48.9773 275.6550 1663302 177.1412 183.9310  1.85520784 79067
GSAT0203 (GALILEO 7)    
1 40544U 15017A   26094.30331323 -.00000095  00000+0  00000+0 0  9993
2 40544  56.8108 343.6116 0004485 297.4041  62.5970  1.70475988 67943
GSAT0204 (GALILEO 8)    
1 40545U 15017B   26093.97240100 -.00000096  00000+0  00000+0 0  9999
2 40545  56.8167 343.6389 0003117 291.5044  68.5090  1.70475693 30986
GSAT0205 (GALILEO 9)    
1 40889U 15045A   26092.93447196 -.00000016  00000+0  00000+0 0  9992
2 40889  54.9709 223.7776 0004084 270.5301  89.3690  1.67410870 65700
GSAT0206 (GALILEO 10)   
1 40890U 15045B   26093.37447767 -.00000013  00000+0  00000+0 0  9994
2 40890  54.9697 223.6683 0002814  47.1384 312.8358  1.70473950 65765
GSAT0209 (GALILEO 12)   
1 41174U 15079A   26092.95596920  .00000032  00000+0  00000+0 0  9996
2 41174  55.7797 103.3236 0005514 325.8217  34.1781  1.70474345 63491
GSAT0208 (GALILEO 11)   
1 41175U 15079B   26093.17621361  .00000031  00000+0  00000+0 0  9999
2 41175  55.7782 103.3145 0004973 327.5574  32.4460  1.70474211 63912
GSAT0211 (GALILEO 14)   
1 41549U 16030A   26094.47340742 -.00000007  00000+0  00000+0 0  9991
2 41549  55.1194 223.7205 0002867  14.1895 345.7766  1.70474141 61411
GSAT0210 (GALILEO 13)   
1 41550U 16030B   26094.14409291 -.00000008  00000+0  00000+0 0  9993
2 41550  55.1189 223.7276 0002051 215.3594 144.5829  1.70474077 61403
GSAT0207 (GALILEO 15)   
1 41859U 16069A   26093.24922366  .00000030  00000+0  00000+0 0  9994
2 41859  55.4504 103.1579 0005781 313.2719  46.7132  1.70474272 58128
GSAT0212 (GALILEO 16)   
1 41860U 16069B   26094.27589471  .00000029  00000+0  00000+0 0  9994
2 41860  55.4482 103.1246 0004376 336.7977  23.2102  1.70474499 58398
GSAT0213 (GALILEO 17)   
1 41861U 16069C   26088.19090007  .00000042  00000+0  00000+0 0  9996
2 41861  55.4467 103.3008 0005672 296.7743  63.2211  1.70475393 58159
GSAT0214 (GALILEO 18)   
1 41862U 16069D   26093.61621158  .00000029  00000+0  00000+0 0  9992
2 41862  55.4486 103.1435 0004819 302.4917  57.4928  1.70474615 58373
